$$SOE
2461295.500000000, A.D. 2026-Sep-12 00:00:00.0000, 3.350757572037437E+08, 5.045310867941067E+08, -4.563073626863244E+07,
2461302.500000000, A.D. 2026-Sep-19 00:00:00.0000, 3.279590296336128E+08, 5.096297802552765E+08, -4.671933063695955E+07,
2461309.500000000, A.D. 2026-Sep-26 00:00:00.0000, 3.207713833918800E+08, 5.146182653964976E+08, -4.779782204681182E+07,
2461316.500000000, A.D. 2026-Oct-03 00:00:00.0000, 3.135145250512394E+08, 5.194957085637339E+08, -4.886600012462920E+07,
2461323.500000000, A.D. 2026-Oct-10 00:00:00.0000, 3.061901678547508E+08, 5.242613016786170E+08, -4.992365750761646E+07,
2461330.500000000, A.D. 2026-Oct-17 00:00:00.0000, 2.988000313028357E+08, 5.289142622144580E+08, -5.097058984760129E+07,
2461337.500000000, A.D. 2026-Oct-24 00:00:00.0000, 2.913458407362719E+08, 5.334538330734773E+08, -5.200659582183981E+07,
2461344.500000000, A.D. 2026-Oct-31 00:00:00.0000, 2.838293270141187E+08, 5.378792822987714E+08, -5.303147716521415E+07,
2461351.500000000, A.D. 2026-Nov-07 00:00:00.0000, 2.762522266257890E+08, 5.421899026951960E+08, -5.404503874875867E+07,
2461358.500000000, A.D. 2026-Nov-14 00:00:00.0000, 2.686162824383832E+08, 5.463850122464297E+08, -5.504708865026623E+07,
2461365.500000000, A.D. 2026-Nov-21 00:00:00.0000, 2.609232432674262E+08, 5.504639560092216E+08, -5.603743799476412E+07,
2461372.500000000, A.D. 2026-Nov-28 00:00:00.0000, 2.531748612717838E+08, 5.544261064759934E+08, -5.701590071860325E+07,
2461379.500000000, A.D. 2026-Dec-05 00:00:00.0000, 2.453728907914903E+08, 5.582708617503341E+08, -5.798229364244223E+07,
2461386.500000000, A.D. 2026-Dec-12 00:00:00.0000, 2.375190887935556E+08, 5.619976446472254E+08, -5.893643661387539E+07,
2461393.500000000, A.D. 2026-Dec-19 00:00:00.0000, 2.296152150384107E+08, 5.656059027246919E+08, -5.987815254587328E+07,
2461400.500000000, A.D. 2026-Dec-26 00:00:00.0000, 2.216630318244371E+08, 5.690951083792721E+08, -6.080726740874714E+07,
2461407.500000000, A.D. 2027-Jan-02 00:00:00.0000, 2.136643035862640E+08, 5.724647588148081E+08, -6.172361021647337E+07,
2461414.500000000, A.D. 2027-Jan-09 00:00:00.0000, 2.056207964633426E+08, 5.757143759049076E+08, -6.262701301642993E+07,
2461421.500000000, A.D. 2027-Jan-16 00:00:00.0000, 1.975342778732137E+08, 5.788435059578713E+08, -6.351731088506058E+07,
2461428.500000000, A.D. 2027-Jan-23 00:00:00.0000, 1.894065161340764E+08, 5.818517193443335E+08, -6.439434193693772E+07,
2461435.500000000, A.D. 2027-Jan-30 00:00:00.0000, 1.812392803227212E+08, 5.847386099397430E+08, -6.525794736840364E+07,
2461442.500000000, A.D. 2027-Feb-06 00:00:00.0000, 1.730343407908684E+08, 5.875037947217841E+08, -6.610797154709908E+07,
2461449.500000000, A.D. 2027-Feb-13 00:00:00.0000, 1.647934698782237E+08, 5.901469147424600E+08, -6.694426200570467E+07,
2461456.500000000, A.D. 2027-Feb-20 00:00:00.0000, 1.565184404570913E+08, 5.926676366831744E+08, -6.776666918783668E+07,
2461463.500000000, A.D. 2027-Feb-27 00:00:00.0000, 1.482110237027593E+08, 5.950656517787091E+08, -6.857504633676261E+07,
2461470.500000000, A.D. 2027-Mar-06 00:00:00.0000, 1.398729891068733E+08, 5.973406740335404E+08, -6.936924964695901E+07,
2461477.500000000, A.D. 2027-Mar-13 00:00:00.0000, 1.315061051335981E+08, 5.994924397802777E+08, -7.014913836459410E+07,
2461484.500000000, A.D. 2027-Mar-20 00:00:00.0000, 1.231121393889690E+08, 6.015207077453034E+08, -7.091457480169684E+07,
2461491.500000000, A.D. 2027-Mar-27 00:00:00.0000, 1.146928585051526E+08, 6.034252590726011E+08, -7.166542432750374E+07,
2461498.500000000, A.D. 2027-Apr-03 00:00:00.0000, 1.062500279423277E+08, 6.052058972581214E+08, -7.240155535960162E+07,
2461505.500000000, A.D. 2027-Apr-10 00:00:00.0000, 9.778541176928800E+07, 6.068624480178566E+08, -7.312283935868579E+07,
2461512.500000000, A.D. 2027-Apr-17 00:00:00.0000, 8.930077244471107E+07, 6.083947590754113E+08, -7.382915083018649E+07,
2461519.500000000, A.D. 2027-Apr-24 00:00:00.0000, 8.079787067815694E+07, 6.098026998069998E+08, -7.452036734514251E+07,
2461526.500000000, A.D. 2027-May-01 00:00:00.0000, 7.227846567024003E+07, 6.110861607718482E+08, -7.519636960555723E+07,
2461533.500000000, A.D. 2027-May-08 00:00:00.0000, 6.374431603925285E+07, 6.122450538767557E+08, -7.585704152134410E+07,
2461540.500000000, A.D. 2027-May-15 00:00:00.0000, 5.519717993755580E+07, 6.132793141285018E+08, -7.650227008374059E+07,
2461547.500000000, A.D. 2027-May-22 00:00:00.0000, 4.663881279391570E+07, 6.141889003819144E+08, -7.713194510339919E+07,
2461554.500000000, A.D. 2027-May-29 00:00:00.0000, 3.807096603697918E+07, 6.149737936152123E+08, -7.774595924074227E+07,
2461561.500000000, A.D. 2027-Jun-05 00:00:00.0000, 2.949538768448862E+07, 6.156339958653190E+08, -7.834420815393162E+07,
2461568.500000000, A.D. 2027-Jun-12 00:00:00.0000, 2.091382279102056E+07, 6.161695302552642E+08, -7.892659054507464E+07,
2461575.500000000, A.D. 2027-Jun-19 00:00:00.0000, 1.232801342325867E+07, 6.165804411785448E+08, -7.949300815056476E+07,
2461582.500000000, A.D. 2027-Jun-26 00:00:00.0000, 3.739698442165867E+06, 6.168667943791223E+08, -8.004336572236252E+07,
2461589.500000000, A.D. 2027-Jul-03 00:00:00.0000, -4.849386775781882E+06, 6.170286769353455E+08, -8.057757101145583E+07,
2461596.500000000, A.D. 2027-Jul-10 00:00:00.0000, -1.343751064138672E+07, 6.170661971563690E+08, -8.109553475590390E+07,
2461603.500000000, A.D. 2027-Jul-17 00:00:00.0000, -2.202294564319980E+07, 6.169794843518648E+08, -8.159717067963299E+07,
2461610.500000000, A.D. 2027-Jul-24 00:00:00.0000, -3.060396846945927E+07, 6.167686884118315E+08, -8.208239552109513E+07,
2461617.500000000, A.D. 2027-Jul-31 00:00:00.0000, -3.917885955053063E+07, 6.164339794318310E+08, -8.255112910996395E+07,
2461624.500000000, A.D. 2027-Aug-07 00:00:00.0000, -4.774590222305849E+07, 6.159755485357239E+08, -8.300329437922689E+07,
2461631.500000000, A.D. 2027-Aug-14 00:00:00.0000, -5.630338381697202E+07, 6.153936096430048E+08, -8.343881712234661E+07,
2461638.500000000, A.D. 2027-Aug-21 00:00:00.0000, -6.484959804717404E+07, 6.146883988162373E+08, -8.385762582699043E+07,
2461645.500000000, A.D. 2027-Aug-28 00:00:00.0000, -7.338284527947049E+07, 6.138601723920978E+08, -8.425965180174762E+07,
2461652.500000000, A.D. 2027-Sep-04 00:00:00.0000, -8.190143185189199E+07, 6.129092063992742E+08, -8.464482928342798E+07,
2461659.500000000, A.D. 2027-Sep-11 00:00:00.0000, -9.040366984631746E+07, 6.118357966020690E+08, -8.501309545129448E+07,
2461666.500000000, A.D. 2027-Sep-18 00:00:00.0000, -9.888787717710631E+07, 6.106402585193552E+08, -8.536439041375899E+07,
2461673.500000000, A.D. 2027-Sep-25 00:00:00.0000, -1.073523777679507E+08, 6.093229273412938E+08, -8.569865719508469E+07,
2461680.500000000, A.D. 2027-Oct-02 00:00:00.0000, -1.157955017419964E+08, 6.078841577715822E+08, -8.601584172696054E+07,
2461687.500000000, A.D. 2027-Oct-09 00:00:00.0000, -1.242155856028396E+08, 6.063243237910380E+08, -8.631589284760588E+07,
2461694.500000000, A.D. 2027-Oct-16 00:00:00.0000, -1.326109723432677E+08, 6.046438182879714E+08, -8.659876231888855E+07,
2461701.500000000, A.D. 2027-Oct-23 00:00:00.0000, -1.409800112219148E+08, 6.028430525499839E+08, -8.686440488592535E+07,
2461708.500000000, A.D. 2027-Oct-30 00:00:00.0000, -1.493210568332391E+08, 6.009224562279285E+08, -8.711277836382356E+07,
2461715.500000000, A.D. 2027-Nov-06 00:00:00.0000, -1.576324686343096E+08, 5.988824789008243E+08, -8.734384355289072E+07,
2461722.500000000, A.D. 2027-Nov-13 00:00:00.0000, -1.659126129134383E+08, 5.967235911657600E+08, -8.755756396998063E+07,
2461729.500000000, A.D. 2027-Nov-20 00:00:00.0000, -1.741598642987326E+08, 5.944462830663197E+08, -8.775390584052357E+07,
2461736.500000000, A.D. 2027-Nov-27 00:00:00.0000, -1.823726051896585E+08, 5.920510628241625E+08, -8.793283825732681E+07,
2461743.500000000, A.D. 2027-Dec-04 00:00:00.0000, -1.905492251353120E+08, 5.895384567883883E+08, -8.809433324604544E+07,
2461750.500000000, A.D. 2027-Dec-11 00:00:00.0000, -1.986881207097746E+08, 5.869090096388714E+08, -8.823836576557735E+07,
2461757.500000000, A.D. 2027-Dec-18 00:00:00.0000, -2.067876956095424E+08, 5.841632845044029E+08, -8.836491369618744E+07,
2461764.500000000, A.D. 2027-Dec-25 00:00:00.0000, -2.148463608210886E+08, 5.813018629934788E+08, -8.847395782935581E+07,
2461771.500000000, A.D. 2028-Jan-01 00:00:00.0000, -2.228625348171802E+08, 5.783253451523508E+08, -8.856548186182722E+07,
$$EOE